IRIDIUM 57 [-]          
1 25273U 98019B   23280.41174086  .00000908  00000+0  31264-3 0  9997
2 25273  86.3981  44.3532 0002135  92.0493 268.0948 14.34925995336027
IRIDIUM 63 [-]          
1 25286U 98021B   23280.52775425  .00000786  00000+0  26686-3 0  9996
2 25286  86.4021 341.2791 0002390  94.6634 265.4835 14.35434719335060
IRIDIUM 69 [-]          
1 25319U 98026A   23280.57029644  .00001126  00000+0  35439-3 0  9993
2 25319  86.4040 356.3708 0000429 181.2262 178.8936 14.39602511334029
IRIDIUM 71 [-]          
1 25320U 98026B   23280.48834746  .00000986  00000+0  30752-3 0  9998
2 25320  86.4029 351.2410 0001982  32.3675 327.7645 14.39937898334527
IRIDIUM 73 [-]          
1 25344U 98032C   23280.53605180  .00000983  00000+0  24865-3 0  9990
2 25344  86.4390 309.0704 0001653  88.4377 271.7017 14.50053528340864
IRIDIUM 82 [-]          
1 25467U 98051A   23280.38087655  .00017209  00000+0  10090-2 0  9994
2 25467  86.3967  45.0718 0148620  68.2356 293.4618 15.02704460330289
IRIDIUM 2 [-]           
1 25527U 98066A   23280.53379372  .00044049  00000+0  10550-2 0  9997
2 25527  85.5159 103.1722 0004106 209.9324 150.1695 15.41243255368435
